ONEWEB-0235             
1 48771U 21045E   25077.77306907 -.00000063  00000+0 -20219-3 0  9996
2 48771  87.9134 349.9156 0002412  72.9803 287.1591 13.15550538184503
ONEWEB-0242             
1 48772U 21045F   25078.22306714  .00000119  00000+0  28281-3 0  9991
2 48772  87.9134 349.8125 0002030  78.9302 281.2056 13.15551338185731
ONEWEB-0241             
1 48773U 21045G   25078.13434181  .00000287  00000+0  72856-3 0  9995
2 48773  87.9139 349.9010 0001950  66.8165 293.3170 13.15551533185631
ONEWEB-0243             
1 48774U 21045H   25078.31814069 -.00000429  00000+0 -11747-2 0  9994
2 48774  87.9142 349.8280 0002318  75.1462 284.9925 13.15547859185681
ONEWEB-0222             
1 48775U 21045J   25078.30150486  .00000019  00000+0  16630-4 0  9991
2 48775  87.9132 349.8051 0001892  72.5030 287.6307 13.15546527185714
ONEWEB-0244             
1 48776U 21045K   25078.17554056  .00000057  00000+0  11844-3 0  9991
2 48776  87.9129 349.8089 0001986  80.6572 279.4783 13.15548604186263
ONEWEB-0247             
1 48777U 21045L   25077.79208844 -.00000034  00000+0 -12502-3 0  9999
2 48777  87.9139 349.9471 0002795  71.6201 288.5233 13.15547132184533
ONEWEB-0245             
1 48778U 21045M   25077.78732205 -.00000343  00000+0 -94498-3 0  9999
2 48778  87.9132 349.9203 0001801  70.2044 289.9280 13.15549489184508
